ORBCOMM FM24            
1 25478U 98053D   25033.58276786  .00003106  00000+0  10750-2 0  9997
2 25478  45.0063 187.0513 0002562 234.3033 125.7577 14.37475882378072
ORBCOMM FM25            
1 25479U 98053E   25033.55193423  .00003119  00000+0  10793-2 0  9992
2 25479  45.0056 185.4536 0004228 267.3501  92.6863 14.37462660378361
ORBCOMM FM26            
1 25480U 98053F   25033.54840706  .00002552  00000+0  90706-3 0  9999
2 25480  45.0050 180.9997 0005548 294.5385  65.4884 14.36613670378286
ORBCOMM FM27            
1 25481U 98053G   25033.54141024  .00003197  00000+0  11053-2 0  9990
2 25481  45.0039 185.7452 0001583 201.8181 158.2600 14.37470224378298
ORBCOMM FM28            
1 25482U 98053H   25033.53036737  .00002681  00000+0  92953-3 0  9990
2 25482  45.0048 123.5270 0004258 310.6643  49.3834 14.37733292378972
ORBCOMM FM30            
1 25980U 99065A   25033.34473350  .00002929  00000+0  10309-2 0  9991
2 25980  45.0324   7.7438 0006066  34.1285 325.9952 14.36773239315058
ORBCOMM FM31            
1 25981U 99065B   25033.38311930  .00002808  00000+0  99082-3 0  9993
2 25981  45.0238   1.0992 0002951  47.4725 312.6372 14.36743495314611
ORBCOMM FM32            
1 25982U 99065C   25033.40908353  .00002975  00000+0  10674-2 0  9992
2 25982  45.0162  16.6428 0004556  56.6565 303.4718 14.35778223315227
